[
  {
    "OBJECT_NAME": "HISAKI (SPRINT-A)",
    "OBJECT_ID": "2013-049A",
    "EPOCH": "2026-04-05T17:34:01.518528",
    "MEAN_MOTION": 13.55534973,
    "ECCENTRICITY": 0.01364257,
    "INCLINATION": 29.7187,
    "RA_OF_ASC_NODE": 228.3753,
    "ARG_OF_PERICENTER": 149.4543,
    "MEAN_ANOMALY": 211.4056,
    "EPHEMERIS_TYPE": 0,
    "CLASSIFICATION_TYPE": "U",
    "NORAD_CAT_ID": 39253,
    "ELEMENT_SET_NO": 999,
    "REV_AT_EPOCH": 62158,
    "BSTAR": 0.00014537964,
    "MEAN_MOTION_DOT": 1.73e-6,
    "MEAN_MOTION_DDOT": 0
  },
  {
    "OBJECT_NAME": "CASSIOPE",
    "OBJECT_ID": "2013-055A",
    "EPOCH": "2026-04-05T21:01:31.177056",
    "MEAN_MOTION": 15.20833284,
    "ECCENTRICITY": 0.03065494,
    "INCLINATION": 80.9158,
    "RA_OF_ASC_NODE": 154.2086,
    "ARG_OF_PERICENTER": 305.2142,
    "MEAN_ANOMALY": 52.0735,
    "EPHEMERIS_TYPE": 0,
    "CLASSIFICATION_TYPE": "U",
    "NORAD_CAT_ID": 39265,
    "ELEMENT_SET_NO": 999,
    "REV_AT_EPOCH": 65666,
    "BSTAR": 0.00041050249,
    "MEAN_MOTION_DOT": 0.00034671,
    "MEAN_MOTION_DDOT": -3.01958e-7
  },
  {
    "OBJECT_NAME": "STSAT-3",
    "OBJECT_ID": "2013-066G",
    "EPOCH": "2026-04-05T22:08:53.662848",
    "MEAN_MOTION": 15.02345119,
    "ECCENTRICITY": 0.00087756,
    "INCLINATION": 97.6171,
    "RA_OF_ASC_NODE": 67.0393,
    "ARG_OF_PERICENTER": 276.3863,
    "MEAN_ANOMALY": 83.6363,
    "EPHEMERIS_TYPE": 0,
    "CLASSIFICATION_TYPE": "U",
    "NORAD_CAT_ID": 39422,
    "ELEMENT_SET_NO": 999,
    "REV_AT_EPOCH": 67335,
    "BSTAR": 0.00036428296,
    "MEAN_MOTION_DOT": 4.761e-5,
    "MEAN_MOTION_DDOT": 0
  },
  {
    "OBJECT_NAME": "SWARM B",
    "OBJECT_ID": "2013-067A",
    "EPOCH": "2026-04-05T21:55:20.757216",
    "MEAN_MOTION": 15.28128046,
    "ECCENTRICITY": 0.00028344,
    "INCLINATION": 87.75,
    "RA_OF_ASC_NODE": 4.248,
    "ARG_OF_PERICENTER": 77.7404,
    "MEAN_ANOMALY": 282.4162,
    "EPHEMERIS_TYPE": 0,
    "CLASSIFICATION_TYPE": "U",
    "NORAD_CAT_ID": 39451,
    "ELEMENT_SET_NO": 999,
    "REV_AT_EPOCH": 67220,
    "BSTAR": 0.00018024004,
    "MEAN_MOTION_DOT": 4.973e-5,
    "MEAN_MOTION_DDOT": 0
  },
  {
    "OBJECT_NAME": "SWARM A",
    "OBJECT_ID": "2013-067B",
    "EPOCH": "2026-04-05T22:04:03.498816",
    "MEAN_MOTION": 15.49459541,
    "ECCENTRICITY": 0.00035327,
    "INCLINATION": 87.3291,
    "RA_OF_ASC_NODE": 83.0575,
    "ARG_OF_PERICENTER": 95.5086,
    "MEAN_ANOMALY": 264.6577,
    "EPHEMERIS_TYPE": 0,
    "CLASSIFICATION_TYPE": "U",
    "NORAD_CAT_ID": 39452,
    "ELEMENT_SET_NO": 999,
    "REV_AT_EPOCH": 69505,
    "BSTAR": 0.00025617263,
    "MEAN_MOTION_DOT": 0.00014124,
    "MEAN_MOTION_DDOT": 0
  },
  {
    "OBJECT_NAME": "SWARM C",
    "OBJECT_ID": "2013-067C",
    "EPOCH": "2026-04-05T22:03:57.568320",
    "MEAN_MOTION": 15.49456776,
    "ECCENTRICITY": 0.00035385,
    "INCLINATION": 87.3292,
    "RA_OF_ASC_NODE": 81.6386,
    "ARG_OF_PERICENTER": 95.9447,
    "MEAN_ANOMALY": 264.2216,
    "EPHEMERIS_TYPE": 0,
    "CLASSIFICATION_TYPE": "U",
    "NORAD_CAT_ID": 39453,
    "ELEMENT_SET_NO": 999,
    "REV_AT_EPOCH": 69501,
    "BSTAR": 0.00025232992,
    "MEAN_MOTION_DOT": 0.00013911,
    "MEAN_MOTION_DDOT": 0
  },
  {
    "OBJECT_NAME": "BRITE-CA1 (TORONTO)",
    "OBJECT_ID": "2014-033L",
    "EPOCH": "2026-04-05T19:26:45.816864",
    "MEAN_MOTION": 14.72558091,
    "ECCENTRICITY": 0.00795972,
    "INCLINATION": 97.962,
    "RA_OF_ASC_NODE": 226.1258,
    "ARG_OF_PERICENTER": 147.8791,
    "MEAN_ANOMALY": 212.7303,
    "EPHEMERIS_TYPE": 0,
    "CLASSIFICATION_TYPE": "U",
    "NORAD_CAT_ID": 40020,
    "ELEMENT_SET_NO": 999,
    "REV_AT_EPOCH": 63156,
    "BSTAR": 0.00032036677,
    "MEAN_MOTION_DOT": 2.088e-5,
    "MEAN_MOTION_DDOT": 0
  },
  {
    "OBJECT_NAME": "OCO 2",
    "OBJECT_ID": "2014-035A",
    "EPOCH": "2026-04-05T21:57:27.602784",
    "MEAN_MOTION": 14.57129114,
    "ECCENTRICITY": 0.00015798,
    "INCLINATION": 98.1967,
    "RA_OF_ASC_NODE": 38.3309,
    "ARG_OF_PERICENTER": 89.5053,
    "MEAN_ANOMALY": 270.6327,
    "EPHEMERIS_TYPE": 0,
    "CLASSIFICATION_TYPE": "U",
    "NORAD_CAT_ID": 40059,
    "ELEMENT_SET_NO": 999,
    "REV_AT_EPOCH": 62552,
    "BSTAR": 0.00017262584,
    "MEAN_MOTION_DOT": 7.33e-6,
    "MEAN_MOTION_DDOT": 0
  },
  {
    "OBJECT_NAME": "BRITE-PL2 (HEWELIUSZ)",
    "OBJECT_ID": "2014-049B",
    "EPOCH": "2026-04-05T20:39:17.842752",
    "MEAN_MOTION": 14.9433274,
    "ECCENTRICITY": 0.00137349,
    "INCLINATION": 97.9007,
    "RA_OF_ASC_NODE": 207.353,
    "ARG_OF_PERICENTER": 356.22,
    "MEAN_ANOMALY": 3.8914,
    "EPHEMERIS_TYPE": 0,
    "CLASSIFICATION_TYPE": "U",
    "NORAD_CAT_ID": 40119,
    "ELEMENT_SET_NO": 999,
    "REV_AT_EPOCH": 63064,
    "BSTAR": 0.00032759092,
    "MEAN_MOTION_DOT": 3.469e-5,
    "MEAN_MOTION_DDOT": 0
  },
  {
    "OBJECT_NAME": "MMS 1",
    "OBJECT_ID": "2015-011A",
    "EPOCH": "2026-04-06T00:00:02.000160",
    "MEAN_MOTION": 0.28348765,
    "ECCENTRICITY": 0.83828795,
    "INCLINATION": 71.1417,
    "RA_OF_ASC_NODE": 349.7997,
    "ARG_OF_PERICENTER": 165.8524,
    "MEAN_ANOMALY": 135.0833,
    "EPHEMERIS_TYPE": 0,
    "CLASSIFICATION_TYPE": "U",
    "NORAD_CAT_ID": 40482,
    "ELEMENT_SET_NO": 999,
    "REV_AT_EPOCH": 130,
    "BSTAR": 0,
    "MEAN_MOTION_DOT": -1.301e-5,
    "MEAN_MOTION_DDOT": 0
  },
  {
    "OBJECT_NAME": "MMS 2",
    "OBJECT_ID": "2015-011B",
    "EPOCH": "2026-04-06T00:00:02.000160",
    "MEAN_MOTION": 0.28348784,
    "ECCENTRICITY": 0.83836271,
    "INCLINATION": 71.1418,
    "RA_OF_ASC_NODE": 349.8018,
    "ARG_OF_PERICENTER": 165.8584,
    "MEAN_ANOMALY": 135.0682,
    "EPHEMERIS_TYPE": 0,
    "CLASSIFICATION_TYPE": "U",
    "NORAD_CAT_ID": 40483,
    "ELEMENT_SET_NO": 999,
    "REV_AT_EPOCH": 130,
    "BSTAR": 0,
    "MEAN_MOTION_DOT": -1.302e-5,
    "MEAN_MOTION_DDOT": 0
  },
  {
    "OBJECT_NAME": "MMS 3",
    "OBJECT_ID": "2015-011C",
    "EPOCH": "2026-04-06T00:00:02.000160",
    "MEAN_MOTION": 0.28348742,
    "ECCENTRICITY": 0.838288,
    "INCLINATION": 71.1444,
    "RA_OF_ASC_NODE": 349.8065,
    "ARG_OF_PERICENTER": 165.8527,
    "MEAN_ANOMALY": 135.0728,
    "EPHEMERIS_TYPE": 0,
    "CLASSIFICATION_TYPE": "U",
    "NORAD_CAT_ID": 40484,
    "ELEMENT_SET_NO": 999,
    "REV_AT_EPOCH": 130,
    "BSTAR": 0,
    "MEAN_MOTION_DOT": -1.302e-5,
    "MEAN_MOTION_DDOT": 0
  },
  {
    "OBJECT_NAME": "MMS 4",
    "OBJECT_ID": "2015-011D",
    "EPOCH": "2026-04-06T00:00:02.000160",
    "MEAN_MOTION": 0.28348715,
    "ECCENTRICITY": 0.83823701,
    "INCLINATION": 71.1407,
    "RA_OF_ASC_NODE": 349.8022,
    "ARG_OF_PERICENTER": 165.8596,
    "MEAN_ANOMALY": 135.0621,
    "EPHEMERIS_TYPE": 0,
    "CLASSIFICATION_TYPE": "U",
    "NORAD_CAT_ID": 40485,
    "ELEMENT_SET_NO": 999,
    "REV_AT_EPOCH": 130,
    "BSTAR": 0,
    "MEAN_MOTION_DOT": -1.301e-5,
    "MEAN_MOTION_DDOT": 0
  },
  {
    "OBJECT_NAME": "ASTROSAT",
    "OBJECT_ID": "2015-052A",
    "EPOCH": "2026-04-04T10:10:08.226912",
    "MEAN_MOTION": 14.82373506,
    "ECCENTRICITY": 0.00075048,
    "INCLINATION": 5.9978,
    "RA_OF_ASC_NODE": 326.2599,
    "ARG_OF_PERICENTER": 58.6972,
    "MEAN_ANOMALY": 301.389,
    "EPHEMERIS_TYPE": 0,
    "CLASSIFICATION_TYPE": "U",
    "NORAD_CAT_ID": 40930,
    "ELEMENT_SET_NO": 999,
    "REV_AT_EPOCH": 56886,
    "BSTAR": 0.00023869134,
    "MEAN_MOTION_DOT": 2.628e-5,
    "MEAN_MOTION_DDOT": 0
  }
]
