HISAKI (SPRINT-A)       
1 39253U 13049A   26095.73196202  .00000173  00000+0  14538-3 0  9995
2 39253  29.7187 228.3753 0136425 149.4543 211.4056 13.55534973621585
CASSIOPE                
1 39265U 13055A   26095.87605529  .00034671 -30196-6  41050-3 0  9993
2 39265  80.9158 154.2086 0306549 305.2142  52.0735 15.20833284656665
STSAT-3                 
1 39422U 13066G   26095.92284332  .00004761  00000+0  36428-3 0  9994
2 39422  97.6171  67.0393 0008775 276.3863  83.6363 15.02345119673357
SWARM B                 
1 39451U 13067A   26095.91343469  .00004973  00000+0  18024-3 0  9990
2 39451  87.7500   4.2480 0002834  77.7404 282.4162 15.28128046672204
SWARM A                 
1 39452U 13067B   26095.91948494  .00014124  00000+0  25617-3 0  9995
2 39452  87.3291  83.0575 0003532  95.5086 264.6577 15.49459541695058
SWARM C                 
1 39453U 13067C   26095.91941630  .00013911  00000+0  25233-3 0  9998
2 39453  87.3292  81.6386 0003538  95.9447 264.2216 15.49456776695014
BRITE-CA1 (TORONTO)     
1 40020U 14033L   26095.81025251  .00002088  00000+0  32037-3 0  9998
2 40020  97.9620 226.1258 0079597 147.8791 212.7303 14.72558091631562
OCO 2                   
1 40059U 14035A   26095.91490281  .00000733  00000+0  17263-3 0  9991
2 40059  98.1967  38.3309 0001579  89.5053 270.6327 14.57129114625520
BRITE-PL2 (HEWELIUSZ)   
1 40119U 14049B   26095.86062318  .00003469  00000+0  32759-3 0  9999
2 40119  97.9007 207.3530 0013734 356.2200   3.8914 14.94332740630646
MMS 1                   
1 40482U 15011A   26096.00002315 -.00001301  00000+0  00000+0 0  9994
2 40482  71.1417 349.7997 8382879 165.8524 135.0833  0.28348765  1305
MMS 2                   
1 40483U 15011B   26096.00002315 -.00001302  00000+0  00000+0 0  9996
2 40483  71.1418 349.8018 8383627 165.8584 135.0682  0.28348784  1303
MMS 3                   
1 40484U 15011C   26096.00002315 -.00001302  00000+0  00000+0 0  9997
2 40484  71.1444 349.8065 8382880 165.8527 135.0728  0.28348742  1307
MMS 4                   
1 40485U 15011D   26096.00002315 -.00001301  00000+0  00000+0 0  9997
2 40485  71.1407 349.8022 8382370 165.8596 135.0621  0.28348715  1302
ASTROSAT                
1 40930U 15052A   26094.42370633  .00002628  00000+0  23869-3 0  9996
2 40930   5.9978 326.2599 0007504  58.6972 301.3890 14.82373506568861
